<?xml version="1.0" encoding="UTF-8"?>
<ndm xmlns:xsi="http://www.w3.org/2001/XMLSchema-instance" xsi:noNamespaceSchemaLocation="https://sanaregistry.org/r/ndmxml_unqualified/ndmxml-2.0.0-master-2.0.xsd">
<omm id="CCSDS_OMM_VERS" version="2.0">
<header><CREATION_DATE/><ORIGINATOR/></header><body><segment><metadata><OBJECT_NAME>KUIPER-00035</OBJECT_NAME><OBJECT_ID>2025-088AA</OBJECT_ID><CENTER_NAME>EARTH</CENTER_NAME><REF_FRAME>TEME</REF_FRAME><TIME_SYSTEM>UTC</TIME_SYSTEM><MEAN_ELEMENT_THEORY>SGP4</MEAN_ELEMENT_THEORY></metadata><data><meanElements><EPOCH>2026-01-25T02:00:07.100928</EPOCH><MEAN_MOTION>14.80082738</MEAN_MOTION><ECCENTRICITY>.00042655</ECCENTRICITY><INCLINATION>51.9018</INCLINATION><RA_OF_ASC_NODE>306.9489</RA_OF_ASC_NODE><ARG_OF_PERICENTER>293.7486</ARG_OF_PERICENTER><MEAN_ANOMALY>66.3029</MEAN_ANOMALY></meanElements><tleParameters><EPHEMERIS_TYPE>0</EPHEMERIS_TYPE><CLASSIFICATION_TYPE>U</CLASSIFICATION_TYPE><NORAD_CAT_ID>63748</NORAD_CAT_ID><ELEMENT_SET_NO>999</ELEMENT_SET_NO><REV_AT_EPOCH>4105</REV_AT_EPOCH><BSTAR>.1218106E-2</BSTAR><MEAN_MOTION_DOT>.9111E-4</MEAN_MOTION_DOT><MEAN_MOTION_DDOT>0</MEAN_MOTION_DDOT></tleParameters></data></segment></body></omm>
<omm id="CCSDS_OMM_VERS" version="2.0">
<header><CREATION_DATE/><ORIGINATOR/></header><body><segment><metadata><OBJECT_NAME>KUIPER-00037</OBJECT_NAME><OBJECT_ID>2025-088AB</OBJECT_ID><CENTER_NAME>EARTH</CENTER_NAME><REF_FRAME>TEME</REF_FRAME><TIME_SYSTEM>UTC</TIME_SYSTEM><MEAN_ELEMENT_THEORY>SGP4</MEAN_ELEMENT_THEORY></metadata><data><meanElements><EPOCH>2026-01-24T17:55:41.022048</EPOCH><MEAN_MOTION>14.80001369</MEAN_MOTION><ECCENTRICITY>.00008081</ECCENTRICITY><INCLINATION>51.9006</INCLINATION><RA_OF_ASC_NODE>307.3748</RA_OF_ASC_NODE><ARG_OF_PERICENTER>98.7343</ARG_OF_PERICENTER><MEAN_ANOMALY>261.3711</MEAN_ANOMALY></meanElements><tleParameters><EPHEMERIS_TYPE>0</EPHEMERIS_TYPE><CLASSIFICATION_TYPE>U</CLASSIFICATION_TYPE><NORAD_CAT_ID>63749</NORAD_CAT_ID><ELEMENT_SET_NO>999</ELEMENT_SET_NO><REV_AT_EPOCH>4180</REV_AT_EPOCH><BSTAR>.12396841E-2</BSTAR><MEAN_MOTION_DOT>.9258E-4</MEAN_MOTION_DOT><MEAN_MOTION_DDOT>0</MEAN_MOTION_DDOT></tleParameters></data></segment></body></omm>
<omm id="CCSDS_OMM_VERS" version="2.0">
<header><CREATION_DATE/><ORIGINATOR/></header><body><segment><metadata><OBJECT_NAME>KUIPER-00038</OBJECT_NAME><OBJECT_ID>2025-088AC</OBJECT_ID><CENTER_NAME>EARTH</CENTER_NAME><REF_FRAME>TEME</REF_FRAME><TIME_SYSTEM>UTC</TIME_SYSTEM><MEAN_ELEMENT_THEORY>SGP4</MEAN_ELEMENT_THEORY></metadata><data><meanElements><EPOCH>2026-01-24T18:18:54.906336</EPOCH><MEAN_MOTION>14.80016311</MEAN_MOTION><ECCENTRICITY>.00041151</ECCENTRICITY><INCLINATION>51.9030</INCLINATION><RA_OF_ASC_NODE>292.3270</RA_OF_ASC_NODE><ARG_OF_PERICENTER>313.9078</ARG_OF_PERICENTER><MEAN_ANOMALY>46.1544</MEAN_ANOMALY></meanElements><tleParameters><EPHEMERIS_TYPE>0</EPHEMERIS_TYPE><CLASSIFICATION_TYPE>U</CLASSIFICATION_TYPE><NORAD_CAT_ID>63750</NORAD_CAT_ID><ELEMENT_SET_NO>999</ELEMENT_SET_NO><REV_AT_EPOCH>4101</REV_AT_EPOCH><BSTAR>.89664716E-3</BSTAR><MEAN_MOTION_DOT>.6634E-4</MEAN_MOTION_DOT><MEAN_MOTION_DDOT>0</MEAN_MOTION_DDOT></tleParameters></data></segment></body></omm>
<omm id="CCSDS_OMM_VERS" version="2.0">
<header><CREATION_DATE/><ORIGINATOR/></header><body><segment><metadata><OBJECT_NAME>KUIPER-00039</OBJECT_NAME><OBJECT_ID>2025-134A</OBJECT_ID><CENTER_NAME>EARTH</CENTER_NAME><REF_FRAME>TEME</REF_FRAME><TIME_SYSTEM>UTC</TIME_SYSTEM><MEAN_ELEMENT_THEORY>SGP4</MEAN_ELEMENT_THEORY></metadata><data><meanElements><EPOCH>2026-01-25T11:29:19.391424</EPOCH><MEAN_MOTION>14.79912850</MEAN_MOTION><ECCENTRICITY>.0002034</ECCENTRICITY><INCLINATION>51.9013</INCLINATION><RA_OF_ASC_NODE>64.1644</RA_OF_ASC_NODE><ARG_OF_PERICENTER>191.3943</ARG_OF_PERICENTER><MEAN_ANOMALY>168.6973</MEAN_ANOMALY></meanElements><tleParameters><EPHEMERIS_TYPE>0</EPHEMERIS_TYPE><CLASSIFICATION_TYPE>U</CLASSIFICATION_TYPE><NORAD_CAT_ID>64500</NORAD_CAT_ID><ELEMENT_SET_NO>999</ELEMENT_SET_NO><REV_AT_EPOCH>3367</REV_AT_EPOCH><BSTAR>.10645E-2</BSTAR><MEAN_MOTION_DOT>.7899E-4</MEAN_MOTION_DOT><MEAN_MOTION_DDOT>0</MEAN_MOTION_DDOT></tleParameters></data></segment></body></omm>
<omm id="CCSDS_OMM_VERS" version="2.0">
<header><CREATION_DATE/><ORIGINATOR/></header><body><segment><metadata><OBJECT_NAME>KUIPER-00040</OBJECT_NAME><OBJECT_ID>2025-134B</OBJECT_ID><CENTER_NAME>EARTH</CENTER_NAME><REF_FRAME>TEME</REF_FRAME><TIME_SYSTEM>UTC</TIME_SYSTEM><MEAN_ELEMENT_THEORY>SGP4</MEAN_ELEMENT_THEORY></metadata><data><meanElements><EPOCH>2026-01-25T07:56:47.349312</EPOCH><MEAN_MOTION>14.79912511</MEAN_MOTION><ECCENTRICITY>.0015768</ECCENTRICITY><INCLINATION>51.9000</INCLINATION><RA_OF_ASC_NODE>75.9617</RA_OF_ASC_NODE><ARG_OF_PERICENTER>124.2344</ARG_OF_PERICENTER><MEAN_ANOMALY>236.0115</MEAN_ANOMALY></meanElements><tleParameters><EPHEMERIS_TYPE>0</EPHEMERIS_TYPE><CLASSIFICATION_TYPE>U</CLASSIFICATION_TYPE><NORAD_CAT_ID>64501</NORAD_CAT_ID><ELEMENT_SET_NO>999</ELEMENT_SET_NO><REV_AT_EPOCH>3349</REV_AT_EPOCH><BSTAR>.6698E-3</BSTAR><MEAN_MOTION_DOT>.4892E-4</MEAN_MOTION_DOT><MEAN_MOTION_DDOT>0</MEAN_MOTION_DDOT></tleParameters></data></segment></body></omm>
<omm id="CCSDS_OMM_VERS" version="2.0">
<header><CREATION_DATE/><ORIGINATOR/></header><body><segment><metadata><OBJECT_NAME>KUIPER-00041</OBJECT_NAME><OBJECT_ID>2025-134C</OBJECT_ID><CENTER_NAME>EARTH</CENTER_NAME><REF_FRAME>TEME</REF_FRAME><TIME_SYSTEM>UTC</TIME_SYSTEM><MEAN_ELEMENT_THEORY>SGP4</MEAN_ELEMENT_THEORY></metadata><data><meanElements><EPOCH>2026-01-25T07:55:11.580096</EPOCH><MEAN_MOTION>14.79993531</MEAN_MOTION><ECCENTRICITY>.0011368</ECCENTRICITY><INCLINATION>51.8986</INCLINATION><RA_OF_ASC_NODE>77.3213</RA_OF_ASC_NODE><ARG_OF_PERICENTER>123.7934</ARG_OF_PERICENTER><MEAN_ANOMALY>236.4112</MEAN_ANOMALY></meanElements><tleParameters><EPHEMERIS_TYPE>0</EPHEMERIS_TYPE><CLASSIFICATION_TYPE>U</CLASSIFICATION_TYPE><NORAD_CAT_ID>64502</NORAD_CAT_ID><ELEMENT_SET_NO>999</ELEMENT_SET_NO><REV_AT_EPOCH>3347</REV_AT_EPOCH><BSTAR>.10701E-2</BSTAR><MEAN_MOTION_DOT>.7964E-4</MEAN_MOTION_DOT><MEAN_MOTION_DDOT>0</MEAN_MOTION_DDOT></tleParameters></data></segment></body></omm>
<omm id="CCSDS_OMM_VERS" version="2.0">
<header><CREATION_DATE/><ORIGINATOR/></header><body><segment><metadata><OBJECT_NAME>KUIPER-00042</OBJECT_NAME><OBJECT_ID>2025-134D</OBJECT_ID><CENTER_NAME>EARTH</CENTER_NAME><REF_FRAME>TEME</REF_FRAME><TIME_SYSTEM>UTC</TIME_SYSTEM><MEAN_ELEMENT_THEORY>SGP4</MEAN_ELEMENT_THEORY></metadata><data><meanElements><EPOCH>2026-01-25T08:00:42.737472</EPOCH><MEAN_MOTION>14.79896571</MEAN_MOTION><ECCENTRICITY>.0011726</ECCENTRICITY><INCLINATION>51.8999</INCLINATION><RA_OF_ASC_NODE>73.3103</RA_OF_ASC_NODE><ARG_OF_PERICENTER>136.6664</ARG_OF_PERICENTER><MEAN_ANOMALY>223.5223</MEAN_ANOMALY></meanElements><tleParameters><EPHEMERIS_TYPE>0</EPHEMERIS_TYPE><CLASSIFICATION_TYPE>U</CLASSIFICATION_TYPE><NORAD_CAT_ID>64503</NORAD_CAT_ID><ELEMENT_SET_NO>999</ELEMENT_SET_NO><REV_AT_EPOCH>3353</REV_AT_EPOCH><BSTAR>.30539E-4</BSTAR><MEAN_MOTION_DOT>.9E-7</MEAN_MOTION_DOT><MEAN_MOTION_DDOT>0</MEAN_MOTION_DDOT></tleParameters></data></segment></body></omm>
<omm id="CCSDS_OMM_VERS" version="2.0">
<header><CREATION_DATE/><ORIGINATOR/></header><body><segment><metadata><OBJECT_NAME>KUIPER-00043</OBJECT_NAME><OBJECT_ID>2025-134E</OBJECT_ID><CENTER_NAME>EARTH</CENTER_NAME><REF_FRAME>TEME</REF_FRAME><TIME_SYSTEM>UTC</TIME_SYSTEM><MEAN_ELEMENT_THEORY>SGP4</MEAN_ELEMENT_THEORY></metadata><data><meanElements><EPOCH>2026-01-25T11:26:57.336864</EPOCH><MEAN_MOTION>14.79913191</MEAN_MOTION><ECCENTRICITY>.0002119</ECCENTRICITY><INCLINATION>51.9019</INCLINATION><RA_OF_ASC_NODE>65.1352</RA_OF_ASC_NODE><ARG_OF_PERICENTER>157.7354</ARG_OF_PERICENTER><MEAN_ANOMALY>202.3701</MEAN_ANOMALY></meanElements><tleParameters><EPHEMERIS_TYPE>0</EPHEMERIS_TYPE><CLASSIFICATION_TYPE>U</CLASSIFICATION_TYPE><NORAD_CAT_ID>64504</NORAD_CAT_ID><ELEMENT_SET_NO>999</ELEMENT_SET_NO><REV_AT_EPOCH>3366</REV_AT_EPOCH><BSTAR>.37349E-3</BSTAR><MEAN_MOTION_DOT>.2626E-4</MEAN_MOTION_DOT><MEAN_MOTION_DDOT>0</MEAN_MOTION_DDOT></tleParameters></data></segment></body></omm>

</ndm>
