KUIPER-00035            
1 63748U 25088AA  26025.08341552  .00009111  00000+0  12181-2 0  9990
2 63748  51.9018 306.9489 0004265 293.7486  66.3029 14.80082738 41056
KUIPER-00037            
1 63749U 25088AB  26024.74700257  .00009258  00000+0  12397-2 0  9995
2 63749  51.9006 307.3748 0000808  98.7343 261.3711 14.80001369 41800
KUIPER-00038            
1 63750U 25088AC  26024.76313549  .00006634  00000+0  89665-3 0  9991
2 63750  51.9030 292.3270 0004115 313.9078  46.1544 14.80016311 41013
KUIPER-00039            
1 64500U 25134A   26025.47869666  .00007899  00000+0  10645-2 0  9997
2 64500  51.9013  64.1644 0002034 191.3943 168.6973 14.79912850 33675
KUIPER-00040            
1 64501U 25134B   26025.33110358  .00004892  00000+0  66980-3 0  9994
2 64501  51.9000  75.9617 0015768 124.2344 236.0115 14.79912511 33492
KUIPER-00041            
1 64502U 25134C   26025.32999514  .00007964  00000+0  10701-2 0  9995
2 64502  51.8986  77.3213 0011368 123.7934 236.4112 14.79993531 33474
KUIPER-00042            
1 64503U 25134D   26025.33382798  .00000009  00000+0  30539-4 0  9993
2 64503  51.8999  73.3103 0011726 136.6664 223.5223 14.79896571 33537
KUIPER-00043            
1 64504U 25134E   26025.47705251  .00002626  00000+0  37349-3 0  9994
2 64504  51.9019  65.1352 0002119 157.7354 202.3701 14.79913191 33661
